C/2020 X2 (ATLAS),e,18.1913,105.4587,347.3513,16.38691,0.0148579,0.76637032,2.0376,04/02.0/2021,2000,g 10.6,4.0
# From MPEC 2021-BE3
C/2020 X4 (Leonard),e,80.4869,161.8981,139.5204,46.88663,0.0030699,0.88889211,0.4357,04/02.0/2021,2000,g  9.0,4.0
# From MPEC 2021-FB5
C/2020 Y2 (ATLAS),e,101.2852,26.5063,266.0991,1224,0.0000230,0.99743989,0.0000,06/17.6613/2022,2000,g  6.5,4.0
# From MPEC 2021-FB5
C/2020 Y3 (ATLAS),e,83.0981,191.4274,342.0448,151.5024,0.0005285,0.98680373,0.0000,12/03.4879/2020,2000,g 13.5,4.0
# From MPEC 2021-FB5
C/2021 A1 (Leonard),h,01/03.2908/2022,132.6863,255.8829,225.0889,1.000084,0.615125,2000,8.5,4.0
# From MPEC 2021-FB5
C/2021 A2 (NEOWISE),e,106.9781,125.2382,338.8477,257.3566,0.0002387,0.99450970,0.0000,01/22.6326/2021,2000,g 13.5,4.0
# From MPEC 2021-FB5
C/2021 A4 (NEOWISE),e,111.5708,307.0841,204.6617,42.99916,0.0034955,0.97336001,0.0000,03/20.0333/2021,2000,g 16.0,4.0
# From MPEC 2021-BE3
P/2021 A5 (PANSTARRS),e,18.1881,328.7678,61.0725,3.045788,0.1854191,0.13958707,26.2579,04/02.0/2021,2000,g 15.0,4.0
# From MPEC 2021-FB5
C/2021 A6 (PANSTARRS),e,75.6011,164.0808,351.6813,7900,0.0000014,0.99899635,0.0000,05/03.9574/2021,2000,g  7.0,4.0
# From MPEC 2021-FB5
C/2021 A7 (NEOWISE),e,78.1488,154.5192,356.0652,5951,0.0000021,0.99966935,0.0000,07/15.3297/2021,2000,g 10.0,4.0
# From MPEC 2021-FB5
C/2021 A9 (PANSTARRS),h,12/02.2807/2023,158.0231,314.8478,211.5114,1.002700,7.757390,2000,6.0,4.0
# From MPEC 2021-F20
C/2021 A10 (NEOWISE),e,151.5254,188.3480,82.2729,91.10772,0.0011334,0.98607714,0.0000,03/15.2739/2021,2000,g 19.0,4.0
# From MPEC 2021-FB5
C/2021 B2 (PANSTARRS),e,38.0940,120.5559,334.9718,335.9146,0.0001601,0.99251866,0.0000,05/04.2725/2021,2000,g 14.0,4.0
# From MPEC 2021-FB5
C/2021 B3 (NEOWISE),e,119.4895,67.2860,293.5595,34.95423,0.0047693,0.93820048,0.1053,04/02.0/2021,2000,g 13.5,4.0
# From MPEC 2021-FB5
C/2021 C1 (Rankin),h,12/07.7520/2020,143.0622,186.8915,336.4343,1.003928,3.483742,2000,11.5,4.0
# From MPEC 2021-F20
P/2021 C2 (PANSTARRS),e,21.9253,66.4751,79.1142,9.539240,0.0334529,0.48734144,1.1353,04/02.0/2021,2000,g 12.0,4.0
# From MPEC 2021-FB5
C/2021 C3 (Catalina),e,122.1615,181.9198,357.1503,63.30512,0.0019568,0.96403933,0.0950,04/02.0/2021,2000,g 14.0,4.0
# From MPEC 2021-FB5
C/2021 C4 (ATLAS),h,01/18.3504/2021,132.8651,194.2589,320.4041,1.002264,4.506639,2000,9.0,4.0
# From MPEC 2021-FB5
C/2021 C5 (PANSTARRS),h,02/10.8022/2023,50.7942,323.6903,270.9156,1.000080,3.240830,2000,9.0,4.0
# From MPEC 2021-F63
C/2021 C6 (Lemmon),h,11/13.3543/2021,164.6260,332.1547,203.5721,1.002165,3.271126,2000,12.0,4.0
# From MPEC 2021-FB5
C/2021 D1 (SWAN),e,31.4619,311.2732,72.2195,92.00671,0.0011168,0.99019946,0.0000,02/27.6063/2021,2000,g 13.0,4.0
# From MPEC 2021-F67
C/2021 D2 (ZTF),e,83.8460,305.6943,125.0865,6150,0.0000020,0.99952121,0.0000,02/04.1853/2022,2000,g  9.0,4.0
# From  98, 1083
1P/Halley,e,162.2698,58.5848,111.5214,17.87246,0.0130445,0.96615715,167.5553,04/02.0/2021,2000,g  4.0,6.0
# From MPEC 2021-F20
2P/Encke,e,11.7795,334.5283,186.5883,2.216657,0.2986456,0.84827176,83.6360,04/02.0/2021,2000,g 14.3,4.0
# From MPEC 2015-A10
4P/Faye,e,8.0116,192.9668,206.9577,3.826417,0.1316787,0.57691234,338.8790,04/02.0/2021,2000,g  8.0,6.0
# From MPEC 2021-FB5
6P/d'Arrest,e,19.5124,138.9358,178.1081,3.497254,0.1507001,0.61266292,334.5592,04/02.0/2021,2000,g  7.5,16.0
# From MPEC 2021-FB5
7P/Pons-Winnecke,e,22.3635,93.3754,172.5942,3.413901,0.1562527,0.63846551,351.3888,04/02.0/2021,2000,g 10.0,6.0
# From MPEC 2021-BE3
8P/Tuttle,e,54.9116,270.2035,207.4908,5.706359,0.0723045,0.82019833,349.3174,04/02.0/2021,2000,g  8.0,8.0
# From MPEC 2019-JE2
9P/Tempel,e,10.4700,68.7240,179.3304,3.147047,0.1765425,0.50932518,300.5209,04/02.0/2021,2000,g  9.0,4.0
# From MPEC 2021-FB5
10P/Tempel,e,12.0396,117.8097,195.5051,3.061630,0.1839818,0.53865073,1.6049,04/02.0/2021,2000,g  5.0,10.0
# From MPEC 2017-L52
11P/Tempel-Swift-LINEAR,e,14.4205,238.9144,167.9498,3.283264,0.1656705,0.57701076,21.0023,04/02.0/2021,2000,g  9.0,4.0
# From  27, 604
12P/Pons-Brooks,e,74.1104,255.7470,199.0129,17.12288,0.0139104,0.95434911,344.4919,04/02.0/2021,2000,g  5.0,6.0
# From  27, 604
13P/Olbers,e,44.6241,85.8882,64.4808,16.70247,0.0144389,0.92971558,342.8694,04/02.0/2021,2000,g  5.0,6.0
# From MPEC 2021-F20
14P/Wolf,e,27.9093,202.0609,159.0000,4.258810,0.1121429,0.35687949,136.4167,04/02.0/2021,2000,g  5.5,12.0
# From MPC 92276
15P/Finlay,e,6.7973,13.7177,347.8247,3.505806,0.1501490,0.71705679,344.6030,04/02.0/2021,2000,g 12.0,4.0
# From MPC 92276
16P/Brooks,e,3.0119,138.8702,245.1699,3.655561,0.1410175,0.48624102,357.7215,04/02.0/2021,2000,g  7.5,10.0
# From MPEC 2020-SI8
17P/Holmes,e,19.0321,326.6203,24.4684,3.635787,0.1421695,0.42771970,5.8537,04/02.0/2021,2000,g 10.0,6.0
# From MPC 92984
19P/Borrelly,e,29.3145,74.2911,351.8659,3.606946,0.1438781,0.63787584,316.0067,04/02.0/2021,2000,g  4.5,10.0
# From MPC111773
21P/Giacobini-Zinner,e,32.0290,195.3529,172.8530,3.495722,0.1507991,0.71087378,140.9068,04/02.0/2021,2000,g  9.0,6.0
# From MPEC 2021-FB5
22P/Kopff,e,4.7421,120.8380,162.9880,3.441807,0.1543563,0.54887051,305.9671,04/02.0/2021,2000,g  3.0,10.4
# From MPC 14747
23P/Brorsen-Metcalf,e,19.1299,312.4321,128.7958,16.95148,0.0141219,0.97124112,0.0000,08/07.0103/1989,2000,g 10.0,6.0
# From MPC110085
24P/Schaumasse,e,11.5661,78.8149,58.0976,4.052892,0.1207971,0.70874541,149.0860,04/02.0/2021,2000,g  6.5,14.0
# From MPC 94674
26P/Grigg-Skjellerup,e,22.4373,211.5406,2.1864,3.014157,0.1883455,0.64043073,172.0786,04/02.0/2021,2000,g 12.0,16.0
# From MPC 78188
27P/Crommelin,e,29.1803,250.5960,195.9598,9.186713,0.0353968,0.91814844,125.3251,04/02.0/2021,2000,g 12.0,8.0
# From MPEC 2021-F20
28P/Neujmin,e,14.3119,346.3322,347.4100,6.978998,0.0534582,0.77385534,1.1289,04/02.0/2021,2000,g  8.5,6.0
# From MPEC 2021-FB5
29P/Schwassmann-Wachmann,e,9.3668,312.3745,48.9042,6.037243,0.0664425,0.04451407,49.2184,04/02.0/2021,2000,g  4.0,4.0
# From MPC110085
30P/Reinmuth,e,8.4353,118.7304,9.9807,3.672717,0.1400306,0.53231907,187.6098,04/02.0/2021,2000,g  9.5,6.0
# From MPC108597
31P/Schwassmann-Wachmann,e,4.5473,114.1137,18.1764,4.239440,0.1129123,0.19221309,71.9232,04/02.0/2021,2000,g  5.0,8.0
# From MPC 92276
32P/Comas Sola,e,9.8921,56.8116,53.9336,4.498343,0.1033059,0.55954547,244.5501,04/02.0/2021,2000,g  6.5,8.0
# From MPEC 2013-O31
33P/Daniel,e,22.3064,66.3307,20.5697,4.084645,0.1193913,0.45181864,202.3188,04/02.0/2021,2000,g 10.0,12.0
# From  15, 452
35P/Herschel-Rigollet,e,65.030,356.579,29.000,28.5630,0.006457,0.9737431,0.000,12/28.6495/2091,2000,g  9.0,4.0
# From MPEC 2020-SI8
36P/Whipple,e,9.9517,181.8557,200.8258,4.132573,0.1173203,0.26878323,35.7971,04/02.0/2021,2000,g  8.5,6.0
# From MPEC 2018-HA5
37P/Forbes,e,8.9576,314.5596,330.1111,3.459991,0.1531410,0.53391981,162.8944,04/02.0/2021,2000,g 10.5,4.8
# From MPEC 2018-S50
38P/Stephan-Oterma,e,18.3589,77.9767,359.5173,11.24303,0.0261444,0.85894162,22.8259,04/02.0/2021,2000,g  3.5,12.0
# From MPEC 2020-W26
39P/Oterma,e,1.5601,299.2289,95.6512,7.393504,0.0490262,0.22406807,321.8603,04/02.0/2021,2000,g  7.0,6.0
# From MPC100283
40P/Vaisala,e,11.4692,133.7780,47.4395,4.951856,0.0894442,0.62969407,208.7240,04/02.0/2021,2000,g  5.5,12.0
# From MPC105240
41P/Tuttle-Giacobini-Kresak,e,9.2209,140.9889,62.2528,3.086787,0.1817373,0.66005328,263.7857,04/02.0/2021,2000,g 10.0,16.0
# From MPC 94283
42P/Neujmin,e,3.9906,150.1801,147.2067,4.872962,0.0916251,0.58540272,199.9564,04/02.0/2021,2000,g 13.0,6.0
# From MPC102956
43P/Wolf-Harrington,e,9.3492,244.2214,224.1218,4.312718,0.1100468,0.43655582,185.2883,04/02.0/2021,2000,g  8.0,6.0
# From MPEC 2020-HN5
44P/Reinmuth,e,5.8985,286.4797,58.1413,3.688752,0.1391185,0.42731803,306.2318,04/02.0/2021,2000,g  8.3,6.0
# From MPC103849
45P/Honda-Mrkos-Pajdusakova,e,4.3238,87.7059,327.9294,3.051275,0.1849192,0.81751667,288.1470,04/02.0/2021,2000,g 13.5,8.0
# From MPC114607
46P/Wirtanen,e,11.7433,82.1575,356.3485,3.091528,0.1813194,0.65822840,152.5815,04/02.0/2021,2000,g 14.0,6.0
# From MPEC 2021-FB5
47P/Ashbrook-Jackson,e,13.0381,356.9215,357.6218,4.124342,0.1176717,0.31824765,163.6566,04/02.0/2021,2000,g  1.0,11.2
# From MPEC 2015-M77
48P/Johnson,e,12.2072,110.1257,216.6447,3.500770,0.1504731,0.42741654,144.9473,04/02.0/2021,2000,g  9.0,4.0
# From MPEC 2020-K19
49P/Arend-Rigaux,e,19.0459,118.7972,332.9579,3.569942,0.1461209,0.59828050,145.0251,04/02.0/2021,2000,g 11.3,4.4
# From MPEC 2015-S97
50P/Arend,e,19.0997,355.1699,49.3164,4.089000,0.1192006,0.52885541,224.3971,04/02.0/2021,2000,g  9.5,6.0
# From NK 3013
51P-A/Harrington,e,5.4261,83.6647,269.2748,3.707475,0.1380660,0.54327423,284.3620,04/02.0/2021,2000,g 16.0,8.0
# From NK 3014
51P-A/Harrington,e,5.4254,83.6802,269.2357,3.708490,0.1380093,0.54334740,284.0921,04/02.0/2021,2000,g 10.0,8.0
# From NK 3014
51P-A/Harrington,e,5.4254,83.6802,269.2357,3.708472,0.1380103,0.54334430,284.0956,04/02.0/2021,2000,g 10.0,8.0
# From MPEC 2015-L08
51P-D/Harrington,e,5.4268,83.6702,269.2250,3.707563,0.1380611,0.54328844,284.3559,04/02.0/2021,2000,g 16.0,8.0
# From MPEC 2015-L08
51P-D/Harrington,e,5.4268,83.6692,269.2258,3.707550,0.1380618,0.54328900,284.3612,04/02.0/2021,2000,g 16.0,8.0
# From NK 3013
51P-D/Harrington,e,5.4261,83.6650,269.2745,3.707474,0.1380660,0.54327441,284.3622,04/02.0/2021,2000,g 16.0,8.0
# From NK 3013
51P-D/Harrington,e,5.4261,83.6650,269.2745,3.707474,0.1380660,0.54327454,284.3622,04/02.0/2021,2000,g 16.0,8.0
# From MPC 88330
52P/Harrington-Abell,e,10.2317,336.8388,139.5996,3.863152,0.1298050,0.53995883,335.8294,04/02.0/2021,2000,g 13.5,6.0
# From MPC100283
53P/Van Biesbroeck,e,6.6091,148.8167,134.4617,5.426684,0.0779655,0.55197681,140.1054,04/02.0/2021,2000,g  7.7,4.8
# From MPC 89011
54P/de Vico-Swift-NEAT,e,6.0635,358.8145,1.7731,3.791992,0.1334760,0.42586162,193.0513,04/02.0/2021,2000,g  9.0,4.0
# From MPC 31070
55P/Tempel-Tuttle,e,162.4169,235.4058,172.5127,10.35304,0.0295871,0.90630393,250.5886,04/02.0/2021,2000,g  9.0,4.0
# From MPC101100
